{"type": "FeatureCollection", "features": [ {"type": "Feature", "properties": {"norad_id": 43484, "name": "GAOFEN-6", "group": "resource", "lat": -10.526872531455046, "lon": -141.63976846655552, "alt_km": 644.9450148684045, "timestamp": "2025-12-01T03:58:49.208172+00:00", "meta": {"OBJECT_NAME": "GAOFEN-6", "OBJECT_ID": "2018-048A", "EPOCH": "2025-11-30T20:36:59.144832", "MEAN_MOTION": 14.7664391, "ECCENTRICITY": 0.0013008, "INCLINATION": 97.8047, "RA_OF_ASC_NODE": 39.5241, "ARG_OF_PERICENTER": 96.8571, "MEAN_ANOMALY": 263.4119, "EPHEMERIS_TYPE": 0, "CLASSIFICATION_TYPE": "U", "NORAD_CAT_ID": 43484, "ELEMENT_SET_NO": 999, "REV_AT_EPOCH": 40412, "BSTAR": 0.00013406, "MEAN_MOTION_DOT": 8.89e-06, "MEAN_MOTION_DDOT": 0, "GROUP": "resource"}, "tle": {"line1": "1 43484U 18048A   25334.85901788  .00000889  00000+0  13406-3 0  9998", "line2": "2 43484  97.8047  39.5241 0013008  96.8571 263.4119 14.76643910404120"}}, "geometry": {"type": "Point", "coordinates": [-141.63976846655552, -10.526872531455046]}}, {"type": "Feature", "properties": {"norad_id": 43585, "name": "GAOFEN-11 01", "group": "resource", "lat": -44.35441435868573, "lon": -148.85793138283532, "alt_km": 429.8253753983254, "timestamp": "2025-12-01T03:58:49.208184+00:00", "meta": {"OBJECT_NAME": "GAOFEN-11 01", "OBJECT_ID": "2018-063A", "EPOCH": "2025-11-30T20:48:36.373824", "MEAN_MOTION": 15.48723522, "ECCENTRICITY": 0.0005213, "INCLINATION": 97.1584, "RA_OF_ASC_NODE": 37.9043, "ARG_OF_PERICENTER": 3.1434, "MEAN_ANOMALY": 356.9849, "EPHEMERIS_TYPE": 0, "CLASSIFICATION_TYPE": "U", "NORAD_CAT_ID": 43585, "ELEMENT_SET_NO": 999, "REV_AT_EPOCH": 40958, "BSTAR": 0.00029344, "MEAN_MOTION_DOT": 0.00015652, "MEAN_MOTION_DDOT": 0, "GROUP": "resource"}, "tle": {"line1": "1 43585U 18063A   25334.86708766  .00015652  00000+0  29344-3 0  9991", "line2": "2 43585  97.1584  37.9043 0005213   3.1434 356.9849 15.48723522409582"}}, "geometry": {"type": "Point", "coordinates": [-148.85793138283532, -44.35441435868573]}}, {"type": "Feature", "properties": {"norad_id": 43613, "name": "ICESAT-2", "group": "resource", "lat": 73.41093276029741, "lon": 64.36614186413688, "alt_km": 473.90404513518115, "timestamp": "2025-12-01T03:58:49.208197+00:00", "meta": {"OBJECT_NAME": "ICESAT-2", "OBJECT_ID": "2018-070A", "EPOCH": "2025-11-30T19:39:31.300128", "MEAN_MOTION": 15.28254137, "ECCENTRICITY": 3.09e-05, "INCLINATION": 92.0049, "RA_OF_ASC_NODE": 237.5195, "ARG_OF_PERICENTER": 139.0436, "MEAN_ANOMALY": 221.0837, "EPHEMERIS_TYPE": 0, "CLASSIFICATION_TYPE": "U", "NORAD_CAT_ID": 43613, "ELEMENT_SET_NO": 999, "REV_AT_EPOCH": 40216, "BSTAR": 0.00053936, "MEAN_MOTION_DOT": 0.0001485, "MEAN_MOTION_DDOT": 0, "GROUP": "resource"}, "tle": {"line1": "1 43613U 18070A   25334.81911227  .00014850  00000+0  53936-3 0  9997", "line2": "2 43613  92.0049 237.5195 0000309 139.0436 221.0837 15.28254137402167"}}, "geometry": {"type": "Point", "coordinates": [64.36614186413688, 73.41093276029741]}}, {"type": "Feature", "properties": {"norad_id": 43719, "name": "HYSIS", "group": "resource", "lat": 39.78331393109411, "lon": -135.06549473731943, "alt_km": 630.4086627603428, "timestamp": "2025-12-01T03:58:49.208212+00:00", "meta": {"OBJECT_NAME": "HYSIS", "OBJECT_ID": "2018-096A", "EPOCH": "2025-11-28T20:07:46.254720", "MEAN_MOTION": 14.78582387, "ECCENTRICITY": 0.00018296, "INCLINATION": 98.0115, "RA_OF_ASC_NODE": 35.8838, "ARG_OF_PERICENTER": 72.4024, "MEAN_ANOMALY": 287.7386, "EPHEMERIS_TYPE": 0, "CLASSIFICATION_TYPE": "U", "NORAD_CAT_ID": 43719, "ELEMENT_SET_NO": 999, "REV_AT_EPOCH": 37781, "BSTAR": 1.7124359e-05, "MEAN_MOTION_DOT": 7.3e-07, "MEAN_MOTION_DDOT": 0, "GROUP": "resource"}, "tle": {"line1": "1 43719U 18096A   25332.83872980  .00000073  00000+0  17124-4 0  9996", "line2": "2 43719  98.0115  35.8838 0001829  72.4024 287.7386 14.78582387377814"}}, "geometry": {"type": "Point", "coordinates": [-135.06549473731943, 39.78331393109411]}}, {"type": "Feature", "properties": {"norad_id": 43783, "name": "KAZSTSAT", "group": "resource", "lat": -54.3830137016684, "lon": -179.6838128156033, "alt_km": 579.497011414438, "timestamp": "2025-12-01T03:58:49.208225+00:00", "meta": {"OBJECT_NAME": "KAZSTSAT", "OBJECT_ID": "2018-099AB", "EPOCH": "2025-11-30T20:31:41.072736", "MEAN_MOTION": 14.99284653, "ECCENTRICITY": 0.0006652, "INCLINATION": 97.4551, "RA_OF_ASC_NODE": 10.5512, "ARG_OF_PERICENTER": 12.3824, "MEAN_ANOMALY": 347.7562, "EPHEMERIS_TYPE": 0, "CLASSIFICATION_TYPE": "U", "NORAD_CAT_ID": 43783, "ELEMENT_SET_NO": 999, "REV_AT_EPOCH": 38158, "BSTAR": 0.00018723, "MEAN_MOTION_DOT": 2.23e-05, "MEAN_MOTION_DDOT": 0, "GROUP": "resource"}, "tle": {"line1": "1 43783U 18099AB  25334.85533649  .00002230  00000+0  18723-3 0  9992", "line2": "2 43783  97.4551  10.5512 0006652  12.3824 347.7562 14.99284653381581"}}, "geometry": {"type": "Point", "coordinates": [-179.6838128156033, -54.3830137016684]}}, {"type": "Feature", "properties": {"norad_id": 43831, "name": "SAUDISAT 5A", "group": "resource", "lat": -79.92203477138683, "lon": 82.05374975142846, "alt_km": 504.6447911121686, "timestamp": "2025-12-01T03:58:49.208237+00:00", "meta": {"OBJECT_NAME": "SAUDISAT 5A", "OBJECT_ID": "2018-102A", "EPOCH": "2025-11-30T20:28:23.202048", "MEAN_MOTION": 15.25427009, "ECCENTRICITY": 0.0011725, "INCLINATION": 97.3377, "RA_OF_ASC_NODE": 35.2746, "ARG_OF_PERICENTER": 112.7507, "MEAN_ANOMALY": 247.4971, "EPHEMERIS_TYPE": 0, "CLASSIFICATION_TYPE": "U", "NORAD_CAT_ID": 43831, "ELEMENT_SET_NO": 999, "REV_AT_EPOCH": 38541, "BSTAR": 0.00029149, "MEAN_MOTION_DOT": 7.311e-05, "MEAN_MOTION_DDOT": 0, "GROUP": "resource"}, "tle": {"line1": "1 43831U 18102A   25334.85304632  .00007311  00000+0  29149-3 0  9998", "line2": "2 43831  97.3377  35.2746 0011725 112.7507 247.4971 15.25427009385413"}}, "geometry": {"type": "Point", "coordinates": [82.05374975142846, -79.92203477138683]}}, {"type": "Feature", "properties": {"norad_id": 43833, "name": "SAUDISAT 5B", "group": "resource", "lat": -45.31172211851235, "lon": 45.794109201709176, "alt_km": 503.21924119571577, "timestamp": "2025-12-01T03:58:49.208248+00:00", "meta": {"OBJECT_NAME": "SAUDISAT 5B", "OBJECT_ID": "2018-102C", "EPOCH": "2025-11-30T20:18:40.287168", "MEAN_MOTION": 15.25786338, "ECCENTRICITY": 0.0012402, "INCLINATION": 97.347, "RA_OF_ASC_NODE": 37.9852, "ARG_OF_PERICENTER": 115.4663, "MEAN_ANOMALY": 244.786, "EPHEMERIS_TYPE": 0, "CLASSIFICATION_TYPE": "U", "NORAD_CAT_ID": 43833, "ELEMENT_SET_NO": 999, "REV_AT_EPOCH": 38552, "BSTAR": 0.00026965, "MEAN_MOTION_DOT": 6.832e-05, "MEAN_MOTION_DDOT": 0, "GROUP": "resource"}, "tle": {"line1": "1 43833U 18102C   25334.84629962  .00006832  00000+0  26965-3 0  9995", "line2": "2 43833  97.3470  37.9852 0012402 115.4663 244.7860 15.25786338385524"}}, "geometry": {"type": "Point", "coordinates": [45.794109201709176, -45.31172211851235]}}, {"type": "Feature", "properties": {"norad_id": 44622, "name": "GAOFEN-10R", "group": "resource", "lat": -70.2035355973514, "lon": 79.55136902882448, "alt_km": 633.8537875439179, "timestamp": "2025-12-01T03:58:49.208270+00:00", "meta": {"OBJECT_NAME": "GAOFEN-10R", "OBJECT_ID": "2019-066A", "EPOCH": "2025-11-30T20:22:11.776224", "MEAN_MOTION": 14.82723893, "ECCENTRICITY": 0.0008338, "INCLINATION": 98.0256, "RA_OF_ASC_NODE": 282.3105, "ARG_OF_PERICENTER": 74.2346, "MEAN_ANOMALY": 285.9786, "EPHEMERIS_TYPE": 0, "CLASSIFICATION_TYPE": "U", "NORAD_CAT_ID": 44622, "ELEMENT_SET_NO": 999, "REV_AT_EPOCH": 33298, "BSTAR": 0.00021988, "MEAN_MOTION_DOT": 1.721e-05, "MEAN_MOTION_DDOT": 0, "GROUP": "resource"}, "tle": {"line1": "1 44622U 19066A   25334.84874741  .00001721  00000+0  21988-3 0  9991", "line2": "2 44622  98.0256 282.3105 0008338  74.2346 285.9786 14.82723893332986"}}, "geometry": {"type": "Point", "coordinates": [79.55136902882448, -70.2035355973514]}}, {"type": "Feature", "properties": {"norad_id": 44804, "name": "CARTOSAT-3", "group": "resource", "lat": -23.50238227527023, "lon": 38.161135218262714, "alt_km": 521.6878687795979, "timestamp": "2025-12-01T03:58:49.208285+00:00", "meta": {"OBJECT_NAME": "CARTOSAT-3", "OBJECT_ID": "2019-081A", "EPOCH": "2025-11-28T19:10:32.696256", "MEAN_MOTION": 15.19179285, "ECCENTRICITY": 0.00136919, "INCLINATION": 97.4604, "RA_OF_ASC_NODE": 32.557, "ARG_OF_PERICENTER": 130.907, "MEAN_ANOMALY": 229.3352, "EPHEMERIS_TYPE": 0, "CLASSIFICATION_TYPE": "U", "NORAD_CAT_ID": 44804, "ELEMENT_SET_NO": 999, "REV_AT_EPOCH": 33304, "BSTAR": 0.00011293309, "MEAN_MOTION_DOT": 2.312e-05, "MEAN_MOTION_DDOT": 0, "GROUP": "resource"}, "tle": {"line1": "1 44804U 19081A   25332.79898954  .00002312  00000+0  11293-3 0  9999", "line2": "2 44804  97.4604  32.5570 0013691 130.9070 229.3352 15.19179285333041"}}, "geometry": {"type": "Point", "coordinates": [38.161135218262714, -23.50238227527023]}}, {"type": "Feature", "properties": {"norad_id": 44819, "name": "GAOFEN-12 01", "group": "resource", "lat": -65.76937606849977, "lon": 143.98764048366914, "alt_km": 634.1665316355311, "timestamp": "2025-12-01T03:58:49.208296+00:00", "meta": {"OBJECT_NAME": "GAOFEN-12 01", "OBJECT_ID": "2019-082A", "EPOCH": "2025-11-30T20:22:49.971072", "MEAN_MOTION": 14.80634489, "ECCENTRICITY": 0.0001389, "INCLINATION": 97.8129, "RA_OF_ASC_NODE": 341.4423, "ARG_OF_PERICENTER": 314.0418, "MEAN_ANOMALY": 46.068, "EPHEMERIS_TYPE": 0, "CLASSIFICATION_TYPE": "U", "NORAD_CAT_ID": 44819, "ELEMENT_SET_NO": 999, "REV_AT_EPOCH": 32474, "BSTAR": 7.7901e-05, "MEAN_MOTION_DOT": 5.47e-06, "MEAN_MOTION_DDOT": 0, "GROUP": "resource"}, "tle": {"line1": "1 44819U 19082A   25334.84918948  .00000547  00000+0  77901-4 0  9997", "line2": "2 44819  97.8129 341.4423 0001389 314.0418  46.0680 14.80634489324748"}}, "geometry": {"type": "Point", "coordinates": [143.98764048366914, -65.76937606849977]}}]}